{"type": "FeatureCollection", "features": [ {"type": "Feature", "properties": {"norad_id": 39586, "name": "COSMOS 2251 DEB", "group": "cosmos-2251-debris", "lat": 54.741273842679625, "lon": 38.67570954188741, "alt_km": 831.1522193785449, "timestamp": "2025-12-04T17:48:40.563262+00:00", "meta": {"OBJECT_NAME": "COSMOS 2251 DEB", "OBJECT_ID": "1993-036BUR", "EPOCH": "2025-12-04T00:26:07.876608", "MEAN_MOTION": 14.21195867, "ECCENTRICITY": 0.01003221, "INCLINATION": 74.0095, "RA_OF_ASC_NODE": 243.9042, "ARG_OF_PERICENTER": 20.3845, "MEAN_ANOMALY": 357.5964, "EPHEMERIS_TYPE": 0, "CLASSIFICATION_TYPE": "U", "NORAD_CAT_ID": 39586, "ELEMENT_SET_NO": 999, "REV_AT_EPOCH": 60848, "BSTAR": 0.00088936605, "MEAN_MOTION_DOT": 2.011e-05, "MEAN_MOTION_DDOT": 0}, "tle": {"line1": "1 39586U 93036BUR 25338.01814672  .00002011  00000+0  88937-3 0  9993", "line2": "2 39586  74.0095 243.9042 0100322  20.3845 357.5964 14.21195867608481"}}, "geometry": {"type": "Point", "coordinates": [38.67570954188741, 54.741273842679625]}}, {"type": "Feature", "properties": {"norad_id": 39591, "name": "COSMOS 2251 DEB", "group": "cosmos-2251-debris", "lat": 40.56283676962552, "lon": 67.41330855288494, "alt_km": 759.3887114213503, "timestamp": "2025-12-04T17:48:40.563272+00:00", "meta": {"OBJECT_NAME": "COSMOS 2251 DEB", "OBJECT_ID": "1993-036BUW", "EPOCH": "2025-12-02T01:57:06.430752", "MEAN_MOTION": 14.41775079, "ECCENTRICITY": 0.00288186, "INCLINATION": 74.0265, "RA_OF_ASC_NODE": 266.5373, "ARG_OF_PERICENTER": 22.6115, "MEAN_ANOMALY": 349.3407, "EPHEMERIS_TYPE": 0, "CLASSIFICATION_TYPE": "U", "NORAD_CAT_ID": 39591, "ELEMENT_SET_NO": 999, "REV_AT_EPOCH": 61623, "BSTAR": 0.00055457771, "MEAN_MOTION_DOT": 1.794e-05, "MEAN_MOTION_DDOT": 0}, "tle": {"line1": "1 39591U 93036BUW 25336.08132443  .00001794  00000+0  55458-3 0  9992", "line2": "2 39591  74.0265 266.5373 0028818  22.6115 349.3407 14.41775079616232"}}, "geometry": {"type": "Point", "coordinates": [67.41330855288494, 40.56283676962552]}}, {"type": "Feature", "properties": {"norad_id": 40218, "name": "COSMOS 2251 DEB", "group": "cosmos-2251-debris", "lat": 36.0187105428711, "lon": -84.33608365684235, "alt_km": 742.9375226250395, "timestamp": "2025-12-04T17:48:40.563282+00:00", "meta": {"OBJECT_NAME": "COSMOS 2251 DEB", "OBJECT_ID": "1993-036BUX", "EPOCH": "2025-12-02T02:20:48.132384", "MEAN_MOTION": 14.41546301, "ECCENTRICITY": 0.00163619, "INCLINATION": 74.0309, "RA_OF_ASC_NODE": 268.5457, "ARG_OF_PERICENTER": 353.795, "MEAN_ANOMALY": 6.3, "EPHEMERIS_TYPE": 0, "CLASSIFICATION_TYPE": "U", "NORAD_CAT_ID": 40218, "ELEMENT_SET_NO": 999, "REV_AT_EPOCH": 58708, "BSTAR": 0.00047133972, "MEAN_MOTION_DOT": 1.508e-05, "MEAN_MOTION_DDOT": 0}, "tle": {"line1": "1 40218U 93036BUX 25336.09777931  .00001508  00000+0  47134-3 0  9993", "line2": "2 40218  74.0309 268.5457 0016361 353.7950   6.3000 14.41546301587082"}}, "geometry": {"type": "Point", "coordinates": [-84.33608365684235, 36.0187105428711]}}, {"type": "Feature", "properties": {"norad_id": 40223, "name": "COSMOS 2251 DEB", "group": "cosmos-2251-debris", "lat": 40.800800817604994, "lon": 119.53313021345407, "alt_km": 560.5685561830469, "timestamp": "2025-12-04T17:48:40.563292+00:00", "meta": {"OBJECT_NAME": "COSMOS 2251 DEB", "OBJECT_ID": "1993-036BVC", "EPOCH": "2025-11-30T19:57:11.530080", "MEAN_MOTION": 15.01298074, "ECCENTRICITY": 0.00135518, "INCLINATION": 73.9359, "RA_OF_ASC_NODE": 113.1436, "ARG_OF_PERICENTER": 301.616, "MEAN_ANOMALY": 209.1518, "EPHEMERIS_TYPE": 0, "CLASSIFICATION_TYPE": "U", "NORAD_CAT_ID": 40223, "ELEMENT_SET_NO": 999, "REV_AT_EPOCH": 59195, "BSTAR": 0.0064717069, "MEAN_MOTION_DOT": 0.0008441, "MEAN_MOTION_DDOT": 0}, "tle": {"line1": "1 40223U 93036BVC 25334.83138345  .00084410  00000+0  64717-2 0  9997", "line2": "2 40223  73.9359 113.1436 0013551 301.6160 209.1518 15.01298074591952"}}, "geometry": {"type": "Point", "coordinates": [119.53313021345407, 40.800800817604994]}}, {"type": "Feature", "properties": {"norad_id": 40228, "name": "COSMOS 2251 DEB", "group": "cosmos-2251-debris", "lat": -52.166181944402204, "lon": -106.28622376632599, "alt_km": 747.7754819667698, "timestamp": "2025-12-04T17:48:40.563303+00:00", "meta": {"OBJECT_NAME": "COSMOS 2251 DEB", "OBJECT_ID": "1993-036BVH", "EPOCH": "2025-11-30T14:54:47.611296", "MEAN_MOTION": 14.40947575, "ECCENTRICITY": 0.0023645, "INCLINATION": 74.0546, "RA_OF_ASC_NODE": 282.9283, "ARG_OF_PERICENTER": 346.4377, "MEAN_ANOMALY": 191.0914, "EPHEMERIS_TYPE": 0, "CLASSIFICATION_TYPE": "U", "NORAD_CAT_ID": 40228, "ELEMENT_SET_NO": 999, "REV_AT_EPOCH": 58746, "BSTAR": 0.00037702, "MEAN_MOTION_DOT": 1.188e-05, "MEAN_MOTION_DDOT": 0}, "tle": {"line1": "1 40228U 93036BVH 25334.62138439  .00001188  00000+0  37702-3 0  9999", "line2": "2 40228  74.0546 282.9283 0023645 346.4377 191.0914 14.40947575587463"}}, "geometry": {"type": "Point", "coordinates": [-106.28622376632599, -52.166181944402204]}}, {"type": "Feature", "properties": {"norad_id": 40230, "name": "COSMOS 2251 DEB", "group": "cosmos-2251-debris", "lat": -46.091942071990175, "lon": 79.17225895338154, "alt_km": 730.1986335336151, "timestamp": "2025-12-04T17:48:40.563314+00:00", "meta": {"OBJECT_NAME": "COSMOS 2251 DEB", "OBJECT_ID": "1993-036BVK", "EPOCH": "2025-12-01T11:25:53.279904", "MEAN_MOTION": 14.49219846, "ECCENTRICITY": 0.00191733, "INCLINATION": 74.0459, "RA_OF_ASC_NODE": 248.0026, "ARG_OF_PERICENTER": 306.9288, "MEAN_ANOMALY": 170.1054, "EPHEMERIS_TYPE": 0, "CLASSIFICATION_TYPE": "U", "NORAD_CAT_ID": 40230, "ELEMENT_SET_NO": 999, "REV_AT_EPOCH": 58808, "BSTAR": 0.00090515824, "MEAN_MOTION_DOT": 3.43e-05, "MEAN_MOTION_DDOT": 0}, "tle": {"line1": "1 40230U 93036BVK 25335.47631111  .00003430  00000+0  90516-3 0  9995", "line2": "2 40230  74.0459 248.0026 0019173 306.9288 170.1054 14.49219846588084"}}, "geometry": {"type": "Point", "coordinates": [79.17225895338154, -46.091942071990175]}}, {"type": "Feature", "properties": {"norad_id": 40233, "name": "COSMOS 2251 DEB", "group": "cosmos-2251-debris", "lat": 27.118995490177138, "lon": -70.06890658753582, "alt_km": 673.3861179659862, "timestamp": "2025-12-04T17:48:40.563324+00:00", "meta": {"OBJECT_NAME": "COSMOS 2251 DEB", "OBJECT_ID": "1993-036BVN", "EPOCH": "2025-12-04T02:17:52.292832", "MEAN_MOTION": 14.58236674, "ECCENTRICITY": 0.00461905, "INCLINATION": 73.9387, "RA_OF_ASC_NODE": 119.6526, "ARG_OF_PERICENTER": 195.886, "MEAN_ANOMALY": 164.0859, "EPHEMERIS_TYPE": 0, "CLASSIFICATION_TYPE": "U", "NORAD_CAT_ID": 40233, "ELEMENT_SET_NO": 999, "REV_AT_EPOCH": 59011, "BSTAR": 0.0029314151, "MEAN_MOTION_DOT": 0.00013736, "MEAN_MOTION_DDOT": 0}, "tle": {"line1": "1 40233U 93036BVN 25338.09574413  .00013736  00000+0  29314-2 0  9997", "line2": "2 40233  73.9387 119.6526 0046190 195.8860 164.0859 14.58236674590113"}}, "geometry": {"type": "Point", "coordinates": [-70.06890658753582, 27.118995490177138]}}, {"type": "Feature", "properties": {"norad_id": 40236, "name": "COSMOS 2251 DEB", "group": "cosmos-2251-debris", "lat": 72.81263115864213, "lon": -96.58417485160592, "alt_km": 927.7858712573661, "timestamp": "2025-12-04T17:48:40.563334+00:00", "meta": {"OBJECT_NAME": "COSMOS 2251 DEB", "OBJECT_ID": "1993-036BVR", "EPOCH": "2025-11-24T19:56:56.097312", "MEAN_MOTION": 13.24604738, "ECCENTRICITY": 0.0536049, "INCLINATION": 73.5357, "RA_OF_ASC_NODE": 171.9764, "ARG_OF_PERICENTER": 53.9086, "MEAN_ANOMALY": 311.0422, "EPHEMERIS_TYPE": 0, "CLASSIFICATION_TYPE": "U", "NORAD_CAT_ID": 40236, "ELEMENT_SET_NO": 999, "REV_AT_EPOCH": 53387, "BSTAR": 0.0012678, "MEAN_MOTION_DOT": 1.163e-05, "MEAN_MOTION_DDOT": 0}, "tle": {"line1": "1 40236U 93036BVR 25328.83120483  .00001163  00000+0  12678-2 0  9991", "line2": "2 40236  73.5357 171.9764 0536049  53.9086 311.0422 13.24604738533877"}}, "geometry": {"type": "Point", "coordinates": [-96.58417485160592, 72.81263115864213]}}, {"type": "Feature", "properties": {"norad_id": 40238, "name": "COSMOS 2251 DEB", "group": "cosmos-2251-debris", "lat": 2.331395164172776, "lon": -104.790450790645, "alt_km": 1408.505109236503, "timestamp": "2025-12-04T17:48:40.563359+00:00", "meta": {"OBJECT_NAME": "COSMOS 2251 DEB", "OBJECT_ID": "1993-036BVT", "EPOCH": "2025-12-02T23:17:45.546720", "MEAN_MOTION": 13.25083413, "ECCENTRICITY": 0.05497645, "INCLINATION": 73.9879, "RA_OF_ASC_NODE": 78.5988, "ARG_OF_PERICENTER": 52.4798, "MEAN_ANOMALY": 312.4962, "EPHEMERIS_TYPE": 0, "CLASSIFICATION_TYPE": "U", "NORAD_CAT_ID": 40238, "ELEMENT_SET_NO": 999, "REV_AT_EPOCH": 53907, "BSTAR": 0.0016280905, "MEAN_MOTION_DOT": 1.579e-05, "MEAN_MOTION_DDOT": 0}, "tle": {"line1": "1 40238U 93036BVT 25336.97066605  .00001579  00000+0  16281-2 0  9997", "line2": "2 40238  73.9879  78.5988 0549764  52.4798 312.4962 13.25083413539078"}}, "geometry": {"type": "Point", "coordinates": [-104.790450790645, 2.331395164172776]}}, {"type": "Feature", "properties": {"norad_id": 40239, "name": "COSMOS 2251 DEB", "group": "cosmos-2251-debris", "lat": 2.777621222281962, "lon": -68.05290881351965, "alt_km": 644.3737524388962, "timestamp": "2025-12-04T17:48:40.563371+00:00", "meta": {"OBJECT_NAME": "COSMOS 2251 DEB", "OBJECT_ID": "1993-036BVU", "EPOCH": "2025-12-03T04:06:23.351040", "MEAN_MOTION": 14.61919535, "ECCENTRICITY": 0.00844774, "INCLINATION": 74.0313, "RA_OF_ASC_NODE": 294.1581, "ARG_OF_PERICENTER": 48.0204, "MEAN_ANOMALY": 330.7965, "EPHEMERIS_TYPE": 0, "CLASSIFICATION_TYPE": "U", "NORAD_CAT_ID": 40239, "ELEMENT_SET_NO": 999, "REV_AT_EPOCH": 59471, "BSTAR": 0.00063426596, "MEAN_MOTION_DOT": 3.31e-05, "MEAN_MOTION_DDOT": 0}, "tle": {"line1": "1 40239U 93036BVU 25337.17110360  .00003310  00000+0  63427-3 0  9999", "line2": "2 40239  74.0313 294.1581 0084477  48.0204 330.7965 14.61919535594719"}}, "geometry": {"type": "Point", "coordinates": [-68.05290881351965, 2.777621222281962]}}]}